[{"OBJECT_NAME":"ORBITER SN3","OBJECT_ID":"2023-084AE","EPOCH":"2026-03-09T23:12:21.976128","MEAN_MOTION":15.32943891,"ECCENTRICITY":0.00075889,"INCLINATION":97.61,"RA_OF_ASC_NODE":206.6768,"ARG_OF_PERICENTER":331.7947,"MEAN_ANOMALY":28.2883,"EPHEMERIS_TYPE":0,"CLASSIFICATION_TYPE":"U","NORAD_CAT_ID":56960,"ELEMENT_SET_NO":999,"REV_AT_EPOCH":15228,"BSTAR":0.00032835432,"MEAN_MOTION_DOT":0.00010378,"MEAN_MOTION_DDOT":0},{"OBJECT_NAME":"STARLINK-32353","OBJECT_ID":"2024-187P","EPOCH":"2026-03-09T10:07:45.453504","MEAN_MOTION":15.30205817,"ECCENTRICITY":0.00011866,"INCLINATION":53.1583,"RA_OF_ASC_NODE":66.1995,"ARG_OF_PERICENTER":101.2461,"MEAN_ANOMALY":258.8673,"EPHEMERIS_TYPE":0,"CLASSIFICATION_TYPE":"U","NORAD_CAT_ID":61587,"ELEMENT_SET_NO":999,"REV_AT_EPOCH":7898,"BSTAR":0.00061661825,"MEAN_MOTION_DOT":0.00017951,"MEAN_MOTION_DDOT":0}]
